NORAD_CAT_ID,OBJECT_NAME,OBJECT_TYPE,EPOCH,MEAN_MOTION,ECCENTRICITY,INCLINATION,RA_OF_ASC_NODE,ARG_OF_PERICENTER,MEAN_ANOMALY,BSTAR,MEAN_MOTION_DOT,MEAN_MOTION_DDOT,TLE_LINE0,TLE_LINE1,TLE_LINE2,SEMIMAJOR_AXIS,PERIOD,APOGEE,PERIGEE,DECAYED
53258.0,STARLINK-4127,PAYLOAD,2023-02-15 14:54:45,15.08854015,0.0001088,53.2141,173.3284,86.3755,273.7362,0.00020778,3.022e-05,0.0,0 STARLINK-4127,1 53258U 22086S   23046.62136026  .00003022  00000-0  20778-3 0  9996,2 53258  53.2141 173.3284 0001088  86.3755 273.7362 15.08854015 32271,6917.838,95.437,540.455,538.95,0.0
53258.0,STARLINK-4127,PAYLOAD,2023-02-15 19:40:54,15.08867687,0.0001269,53.2153,172.4338,88.0697,272.044,0.00017626,2.52e-05,0.0,0 STARLINK-4127,1 53258U 22086S   23046.82007075  .00002520  00000-0  17626-3 0  9999,2 53258  53.2153 172.4338 0001269  88.0697 272.0440 15.08867687 32121,6917.796,95.436,540.539,538.783,0.0
53258.0,STARLINK-4127,PAYLOAD,2023-02-16 14:45:31,15.08857713,0.0001359,53.2163,168.8677,78.5846,281.5298,0.00019019,2.742e-05,0.0,0 STARLINK-4127,1 53258U 22086S   23047.61495337  .00002742  00000-0  19019-3 0  9993,2 53258  53.2163 168.8677 0001359  78.5846 281.5298 15.08857713 32245,6917.826,95.436,540.631,538.751,0.0
53258.0,STARLINK-4127,PAYLOAD,2023-02-16 17:56:17,15.08869988,0.0001325,53.2183,168.2721,84.0963,276.018,0.00021822,3.19e-05,0.0,0 STARLINK-4127,1 53258U 22086S   23047.74742207  .00003190  00000-0  21822-3 0  9991,2 53258  53.2183 168.2721 0001325  84.0963 276.0180 15.08869988 32264,6917.789,95.436,540.57,538.737,0.0
53258.0,STARLINK-4127,PAYLOAD,2023-02-17 14:36:21,15.08824961,0.0001345,53.218,164.4096,95.128,264.9865,-6.368e-05,-1.301e-05,0.0,0 STARLINK-4127,1 53258U 22086S   23048.60858250 -.00001301  00000-0 -63680-4 0  9996,2 53258  53.2180 164.4096 0001345  95.1280 264.9865 15.08824961 32393,6917.926,95.439,540.722,538.861,0.0
53258.0,STARLINK-4127,PAYLOAD,2023-02-17 19:22:30,15.0883063,0.0001529,53.2159,163.5116,95.07,265.0466,-0.00019842,-3.444e-05,0.0,0 STARLINK-4127,1 53258U 22086S   23048.80730321 -.00003444  00000-0 -19842-3 0  9996,2 53258  53.2159 163.5116 0001529  95.0700 265.0466 15.08830630 32605,6917.909,95.438,540.832,538.716,0.0
53258.0,STARLINK-4127,PAYLOAD,2023-02-18 14:27:09,15.08827605,0.0001546,53.214,159.9446,88.1596,271.9573,-0.00015505,-2.754e-05,0.0,0 STARLINK-4127,1 53258U 22086S   23049.60218931 -.00002754  00000-0 -15505-3 0  9998,2 53258  53.2140 159.9446 0001546  88.1596 271.9573 15.08827605 32721,6917.918,95.438,540.853,538.714,0.0
53258.0,STARLINK-4127,PAYLOAD,2023-02-18 17:37:54,15.08841178,0.0001157,53.2162,159.3516,92.2966,267.8159,-6.6746e-05,-1.35e-05,0.0,0 STARLINK-4127,1 53258U 22086S   23049.73466034 -.00001350  00000-0 -66746-4 0  9996,2 53258  53.2162 159.3516 0001157  92.2966 267.8159 15.08841178 32569,6917.877,95.437,540.542,538.941,0.0
53258.0,STARLINK-4127,PAYLOAD,2023-02-19 14:17:55,15.08838942,9.22e-05,53.218,155.4863,97.933,262.1767,0.00021743,3.174e-05,0.0,0 STARLINK-4127,1 53258U 22086S   23050.59577862  .00003174  00000-0  21743-3 0  9995,2 53258  53.2180 155.4863 0000922  97.9330 262.1767 15.08838942 32879,6917.884,95.438,540.386,539.111,0.0
53258.0,STARLINK-4127,PAYLOAD,2023-02-19 23:50:14,15.08831527,5.65e-05,53.217,153.7013,96.0786,264.027,-5.1896e-05,-1.113e-05,0.0,0 STARLINK-4127,1 53258U 22086S   23050.99322825 -.00001113  00000-0 -51896-4 0  9992,2 53258  53.2170 153.7013 0000565  96.0786 264.0270 15.08831527 32753,6917.906,95.438,540.162,539.38,0.0
53258.0,STARLINK-4127,PAYLOAD,2023-02-20 14:08:42,15.08842071,0.0001299,53.2169,151.0271,95.9142,264.1998,0.00011509,1.544e-05,0.0,0 STARLINK-4127,1 53258U 22086S   23051.58938383  .00001544  00000-0  11509-3 0  9992,2 53258  53.2169 151.0271 0001299  95.9142 264.1998 15.08842071 32841,6917.874,95.437,540.638,538.84,0.0
53258.0,STARLINK-4127,PAYLOAD,2023-02-20 15:44:05,15.08852395,0.0001102,53.2169,150.7273,95.0569,265.0549,0.0001533,2.154e-05,0.0,0 STARLINK-4127,1 53258U 22086S   23051.65561547  .00002154  00000-0  15330-3 0  9998,2 53258  53.2169 150.7273 0001102  95.0569 265.0549 15.08852395 32859,6917.843,95.437,540.47,538.945,0.0
53258.0,STARLINK-4127,PAYLOAD,2023-02-21 12:24:06,15.08849525,0.0001404,53.2168,146.8613,71.0841,289.0304,-8.4315e-05,-1.63e-05,0.0,0 STARLINK-4127,1 53258U 22086S   23052.51674513 -.00001630  00000-0 -84315-4 0  9992,2 53258  53.2168 146.8613 0001404  71.0841 289.0304 15.08849525 32984,6917.851,95.437,540.688,538.745,0.0
53258.0,STARLINK-4127,PAYLOAD,2023-02-21 15:34:52,15.08860009,0.0001153,53.2172,146.267,83.6357,276.4766,3.6116e-05,2.87e-06,0.0,0 STARLINK-4127,1 53258U 22086S   23052.64921331  .00000287  00000-0  36116-4 0  9990,2 53258  53.2172 146.2670 0001153  83.6357 276.4766 15.08860009 33004,6917.819,95.436,540.482,538.887,0.0
53258.0,STARLINK-4127,PAYLOAD,2023-02-21 23:31:48,15.08851174,9.36e-05,53.2171,144.7802,83.7684,276.3415,-5.9786e-05,-1.239e-05,0.0,0 STARLINK-4127,1 53258U 22086S   23052.98041746 -.00001239  00000-0 -59786-4 0  9998,2 53258  53.2171 144.7802 0000936  83.7684 276.3415 15.08851174 33053,6917.846,95.437,540.359,539.064,0.0
53258.0,STARLINK-4127,PAYLOAD,2023-02-22 12:14:53,15.08851024,0.000133,53.216,142.4013,84.1103,276.004,-1.5568e-05,-5.36e-06,0.0,0 STARLINK-4127,1 53258U 22086S   23053.51033595 -.00000536  00000-0 -15568-4 0  9990,2 53258  53.2160 142.4013 0001330  84.1103 276.0040 15.08851024 33314,6917.847,95.437,540.632,538.792,0.0
53258.0,STARLINK-4127,PAYLOAD,2023-02-22 15:25:38,15.08856888,0.0001361,53.2163,141.8066,85.7321,274.3826,4.1243e-05,3.69e-06,0.0,0 STARLINK-4127,1 53258U 22086S   23053.64280935  .00000369  00000-0  41243-4 0  9997,2 53258  53.2163 141.8066 0001361  85.7321 274.3826 15.08856888 33339,6917.829,95.436,540.635,538.752,0.0
53258.0,STARLINK-4127,PAYLOAD,2023-02-22 23:22:35,15.08842313,0.0001452,53.217,140.3198,77.8645,282.251,-8.744e-05,-1.679e-05,0.0,0 STARLINK-4127,1 53258U 22086S   23053.97402126 -.00001679  00000-0 -87440-4 0  9997,2 53258  53.2170 140.3198 0001452  77.8645 282.2510 15.08842313 33201,6917.873,95.437,540.743,538.734,0.0
53258.0,STARLINK-4127,PAYLOAD,2023-02-23 12:05:40,15.08841734,0.0001372,53.2175,137.9403,85.7629,274.352,-9.1029e-05,-1.736e-05,0.0,0 STARLINK-4127,1 53258U 22086S   23054.50394434 -.00001736  00000-0 -91029-4 0  9991,2 53258  53.2175 137.9403 0001372  85.7629 274.3520 15.08841734 33465,6917.875,95.437,540.689,538.791,0.0
53258.0,STARLINK-4127,PAYLOAD,2023-02-23 16:51:49,15.08847283,0.0001471,53.2182,137.0463,103.3065,256.8091,2.5872e-06,-2.47e-06,0.0,0 STARLINK-4127,1 53258U 22086S   23054.70265569 -.00000247  00000-0  25872-5 0  9998,2 53258  53.2182 137.0463 0001471 103.3065 256.8091 15.08847283 33497,6917.858,95.437,540.741,538.706,0.0
53258.0,STARLINK-4127,PAYLOAD,2023-02-24 05:34:55,15.08834499,0.000132,53.2163,134.6698,91.0899,269.0245,-3.5086e-05,-8.46e-06,0.0,0 STARLINK-4127,1 53258U 22086S   23055.23258656 -.00000846  00000-0 -35086-4 0  9999,2 53258  53.2163 134.6698 0001320  91.0899 269.0245 15.08834499 33391,6917.897,95.438,540.675,538.849,0.0
53258.0,STARLINK-4127,PAYLOAD,2023-02-24 11:56:27,15.08846449,0.0001345,53.2165,133.4811,90.8234,269.2913,-3.5381e-05,-8.51e-06,0.0,0 STARLINK-4127,1 53258U 22086S   23055.49753965 -.00000851  00000-0 -35381-4 0  9994,2 53258  53.2165 133.4811 0001345  90.8234 269.2913 15.08846449 33611,6917.861,95.437,540.656,538.795,0.0
53258.0,STARLINK-4127,PAYLOAD,2023-02-24 15:07:13,15.08852051,0.0001321,53.2174,132.8874,90.4042,269.7102,1.9444e-05,2.2e-07,0.0,0 STARLINK-4127,1 53258U 22086S   23055.63001381  .00000022  00000-0  19444-4 0  9998,2 53258  53.2174 132.8874 0001321  90.4042 269.7102 15.08852051 33453,6917.844,95.437,540.622,538.795,0.0
53258.0,STARLINK-4127,PAYLOAD,2023-02-25 05:25:43,15.08819481,0.0001222,53.2174,130.2081,103.1311,256.9817,-4.0582e-05,-9.33e-06,0.0,0 STARLINK-4127,1 53258U 22086S   23056.22619939 -.00000933  00000-0 -40582-4 0  9998,2 53258  53.2174 130.2081 0001222 103.1311 256.9817 15.08819481 33547,6917.943,95.439,540.653,538.963,0.0
53258.0,STARLINK-4127,PAYLOAD,2023-02-25 13:22:39,15.08831094,0.0001278,53.2165,128.7244,84.3275,275.7863,-7.1309e-05,-1.422e-05,0.0,0 STARLINK-4127,1 53258U 22086S   23056.55739678 -.00001422  00000-0 -71309-4 0  9992,2 53258  53.2165 128.7244 0001278  84.3275 275.7863 15.08831094 33779,6917.908,95.438,540.657,538.889,0.0
53258.0,STARLINK-4127,PAYLOAD,2023-02-25 21:19:34,15.08835256,0.0001353,53.217,127.2375,84.2442,275.8704,-4.586e-05,-1.018e-05,0.0,0 STARLINK-4127,1 53258U 22086S   23056.88859522 -.00001018  00000-0 -45860-4 0  9993,2 53258  53.2170 127.2375 0001353  84.2442 275.8704 15.08835256 33828,6917.895,95.438,540.696,538.824,0.0
53258.0,STARLINK-4127,PAYLOAD,2023-02-26 03:41:06,15.08833887,0.0001128,53.216,126.0444,94.5683,265.5438,0.00010148,1.327e-05,0.0,0 STARLINK-4127,1 53258U 22086S   23057.15355237  .00001327  00000-0  10148-3 0  9999,2 53258  53.2160 126.0444 0001128  94.5683 265.5438 15.08833887 33684,6917.899,95.438,540.544,538.984,0.0
53258.0,STARLINK-4127,PAYLOAD,2023-02-26 08:27:15,15.08849645,0.0001085,53.2154,125.1543,76.8802,283.2311,0.00011256,1.504e-05,0.0,0 STARLINK-4127,1 53258U 22086S   23057.35226371  .00001504  00000-0  11256-3 0  9995,2 53258  53.2154 125.1543 0001085  76.8802 283.2311 15.08849645 33715,6917.851,95.437,540.466,538.965,0.0
53258.0,STARLINK-4127,PAYLOAD,2023-02-26 13:13:24,15.08859559,0.0001132,53.2161,124.2624,80.2902,279.8218,0.00020696,3.009e-05,0.0,0 STARLINK-4127,1 53258U 22086S   23057.55097535  .00003009  00000-0  20696-3 0  9995,2 53258  53.2161 124.2624 0001132  80.2902 279.8218 15.08859559 33921,6917.821,95.436,540.469,538.903,0.0
53258.0,STARLINK-4127,PAYLOAD,2023-02-26 14:48:47,15.08862461,0.0001136,53.2161,123.9646,84.1166,275.9955,0.00024601,3.632e-05,0.0,0 STARLINK-4127,1 53258U 22086S   23057.61721354  .00003632  00000-0  24601-3 0  9997,2 53258  53.2161 123.9646 0001136  84.1166 275.9955 15.08862461 33752,6917.812,95.436,540.463,538.891,0.0
